{
"type": "FeatureCollection",
"name": "china-russia-border",
"crs": { "type": "name", "properties": { "name": "urn:ogc:def:crs:OGC:1.3:CRS84" } },
"features": [
{"type":"Feature","properties":{"FEATURECLA":"International boundary (verify)","NAME":null,"COMMENT":null,"ADM0_USA":1,"ADM0_LEFT":"Russia","ADM0_RIGHT":"China","ADM0_A3_L":"RUS","ADM0_A3_R":"CHN","SOV_A3_L":"RUS","SOV_A3_R":"CH1","TYPE":"Land","LABELRANK":2,"SCALERANK":1,"MIN_ZOOM":0.0,"MIN_LABEL":5.7,"NOTE":null,"ADM0_ABR_L":"Rus.","ADM0_ABR_R":"China","FCLASS_ISO":null,"FCLASS_US":null,"FCLASS_FR":null,"FCLASS_RU":null,"FCLASS_ES":null,"FCLASS_CN":null,"FCLASS_TW":null,"FCLASS_IN":null,"FCLASS_NP":null,"FCLASS_PK":null,"FCLASS_DE":null,"FCLASS_GB":null,"FCLASS_BR":null,"FCLASS_IL":null,"FCLASS_PS":null,"FCLASS_SA":null,"FCLASS_EG":null,"FCLASS_MA":null,"FCLASS_PT":null,"FCLASS_AR":null,"FCLASS_JP":null,"FCLASS_KO":null,"FCLASS_VN":null,"FCLASS_TR":null,"FCLASS_ID":null,"FCLASS_PL":null,"FCLASS_GR":null,"FCLASS_IT":null,"FCLASS_NL":null,"FCLASS_SE":null,"FCLASS_BD":null,"FCLASS_UA":null,"ne_id":1746707251,"BRK_A3":null,"FCLASS_OSM":null,"FCLASS_TLC":null},"geometry":{"type":"MultiLineString","coordinates":[[[123.27731205300006,53.569444479000069],[123.309558147000075,53.567480775000021],[123.340253947000122,53.561434632000086],[123.367745809000098,53.545828349000047],[123.380251506000093,53.542831116000045],[123.419939006000106,53.538541973000051],[123.431669556000088,53.535803122000019],[123.471408733000089,53.519008281000069],[123.481537313000103,53.5180781050001]],[[122.401603231000081,53.450950419000051],[122.42516768400003,53.452449036000061],[122.471211385000117,53.464748027000027],[122.859663127000147,53.473946432],[123.002548463000096,53.507329407000086],[123.153598674000023,53.513117167000061],[123.16424401900008,53.516372783000051],[123.18005700700013,53.530480449000081],[123.203259725000123,53.538283590000091],[123.234730673000058,53.560349427000077],[123.25255904200003,53.567790833000018],[123.27731205300006,53.569444479000069]],[[123.614294068000106,53.563346660000022],[123.639563843000076,53.55125437400001],[123.677752727000154,53.519990133000121],[123.701782268000159,53.510068258000032],[123.73216801,53.503763733000099],[123.850196981000067,53.494978740000121],[123.876551962000065,53.488674215000017],[123.970551392000061,53.455187887000122],[123.989723349000087,53.441493632000103],[124.010083863000148,53.414673564000012],[124.017370239,53.407025452000127],[124.029927613000041,53.399945781],[124.055662476000123,53.394881490000031],[124.06889164200004,53.389610494000081],[124.100259237000046,53.363358867000059],[124.121808309000016,53.35268768400006]],[[123.541895386000135,53.514099020000018],[123.560912313000017,53.524175924000062],[123.591918173000124,53.5578689580001],[123.614294068000106,53.563346660000022]],[[123.514403525000034,53.562416484000053],[123.535280803000092,53.554613342000025],[123.547476441000128,53.54050567600008],[123.539363241000046,53.537043356000069],[123.532593629000075,53.532495830000116],[123.519571167000151,53.519990133000121],[123.541895386000135,53.514099020000018]],[[123.481537313000103,53.5180781050001],[123.485516398000073,53.525984600000058],[123.486084839000057,53.543916321000026],[123.494766480000123,53.560091045000021],[123.514403525000034,53.562416484000053]],[[122.316750529000046,53.496012269000104],[122.337834514000065,53.491309713000035],[122.358091675000082,53.479579163000054],[122.379692424000041,53.461647441000068],[122.401603231000081,53.450950419000051]],[[122.081622762000052,53.429504700000038],[122.108081095000159,53.438082988000062],[122.147768596000105,53.461130676000025],[122.168697551000037,53.469140523000092],[122.225696656000082,53.473946432],[122.293702840000094,53.4926533000001],[122.316750529000046,53.496012269000104]],[[121.888973023000119,53.430589905000048],[122.025051942000061,53.429823366000036],[122.081622762000052,53.429504700000038]],[[121.405798381000125,53.316824240000116],[121.413274785,53.317334824000071],[121.458766724000043,53.320441590000101],[121.512148478000142,53.329820862000062],[121.641029501000048,53.384907939000115],[121.888973023000119,53.430589905000048]],[[124.208779745000015,53.382685852000023],[124.232705933000034,53.38165232300004],[124.253066447000037,53.375502828000052],[124.275390666000021,53.364702454000039],[124.293425741000135,53.351292420000092],[124.304742880000106,53.329045716000039],[124.32138269100011,53.309770406],[124.325826864000135,53.305998027000086],[124.34251835200007,53.27248586000006],[124.359933309000098,53.25946339900004],[124.383704468000076,53.246130880000109],[124.408199097000079,53.235692241000081],[124.453932739000038,53.228199158000038],[124.500493205,53.213678080000093],[124.528191773,53.210344951000096]],[[124.121808309000016,53.35268768400006],[124.140256796000017,53.357803650000065],[124.157775106000088,53.370025126000073],[124.182218059000093,53.378551738000098],[124.208779745000015,53.382685852000023]],[[121.35763594600013,53.324058940000086],[121.405798381000125,53.316824240000116]],[[121.151808716,53.274501241000038],[121.203485149000073,53.276749166000045],[121.25355961200006,53.286929423000103],[121.299965047,53.302535706000029],[121.32833540900009,53.319976501999989],[121.340996135000125,53.323645529000075],[121.35763594600013,53.324058940000086]],[[121.05486372900009,53.290004171000035],[121.151808716,53.274501241000038]],[[120.175950968000052,52.583742371000042],[120.11285404500012,52.584517517000037],[120.079367717000139,52.589969381000046],[120.056423381000116,52.600511374000078],[120.042677450000042,52.613507996000024],[120.033789103000061,52.625367737000047],[120.030120077000163,52.639372050000063],[120.032600546000026,52.658879903000056],[120.036579631,52.668129985000078],[120.052909384000031,52.693012187000122],[120.051565796000091,52.704587708000062],[120.044021038000096,52.723527120000099],[120.046088094000083,52.73399159800006],[120.032962280000106,52.76065663700011],[120.065828492000037,52.783213399000047],[120.155952189000061,52.809077454000075],[120.177397909000149,52.817914124000069],[120.219617554000024,52.844915060000105],[120.252483765000079,52.852692363000116],[120.267211548000091,52.858144227000096],[120.280182332000095,52.865921530000023],[120.28571171100009,52.87488739000004],[120.290724325000042,52.885351868000086],[120.302351522000095,52.891242982000094],[120.326691122000057,52.899046123000105],[120.337233114000014,52.907701925000069],[120.342400757000121,52.915427552000054],[120.346586548000062,52.923463237000036],[120.354079631000161,52.933230082000094],[120.362037801000042,52.939379578000072],[120.391906779000067,52.956768697000101],[120.450301147,53.008341777000012],[120.527609091000045,53.055806580000095],[120.614787231000037,53.097070211000116],[120.652200968000159,53.122830913000101],[120.714057658,53.185049337000024],[120.751264689000095,53.206908468000066],[120.823870077000038,53.235227153000054],[120.830432984000026,53.24483897000006],[120.825988811,53.261866354000077],[120.845729207000147,53.273441875000046],[120.874254598000107,53.280159811000047],[121.05486372900009,53.290004171000035]],[[125.073688192000134,53.21220530300009],[125.127431681000132,53.206546733000053],[125.428085165000084,53.094693095000068],[125.456403850000015,53.090894878000128],[125.476505982000049,53.083505148000128],[125.499501994000127,53.050613098999989],[125.521309449000057,53.042422384000062]],[[124.870134725000128,53.107999776000085],[124.896231324000098,53.117663270000023],[124.891787151000017,53.134251404000011],[124.879178101000093,53.153862611000037],[124.880418335000115,53.172517802000115],[124.897678264000092,53.185514425000051],[124.919175660000064,53.193937683000044],[125.019427938000092,53.210732524],[125.073688192000134,53.21220530300009]],[[124.640226278000057,53.210344951000096],[124.65159509300014,53.20876882000006],[124.678673544000105,53.199337870000093],[124.68828536,53.193601787000048],[124.696398560000034,53.183757426000071],[124.696863648000146,53.176341859000061],[124.69557173700008,53.169804789000082],[124.698258912000028,53.162647604000128],[124.720169719000069,53.148824158000068],[124.747299846000033,53.147713115000059]],[[124.528191773,53.210344951000096],[124.640226278000057,53.210344951000096]],[[124.801353394000103,53.155154521],[124.822023967000064,53.14724802700006],[124.848120565000045,53.113684184000121],[124.870134725000128,53.107999776000085]],[[124.747299846000033,53.147713115000059],[124.801353394000103,53.155154521]],[[125.621355022000103,53.062136943000027],[125.637994833000164,53.046143087000061],[125.650190471000144,53.023379619000096],[125.678612508000015,53.005680440000091],[125.733544556000084,52.981650900000048],[125.724294474000089,52.952763774000104],[125.719850302000111,52.946304220000044],[125.711065308,52.941214092000067],[125.688586060000091,52.936459860000085],[125.678870891000145,52.933230082000094],[125.660939169000073,52.919354960000121],[125.647089885000014,52.900906474000109],[125.646469768000145,52.884886780000059],[125.668690633000097,52.877962138000086]],[[125.521309449000057,53.042422384000062],[125.58404463700009,53.058907166000054],[125.621355022000103,53.062136943000027]],[[125.837362508000126,52.906720073000102],[125.856947877000039,52.899046123000105],[125.86371748900001,52.888581645000059],[125.861857137000072,52.881450297000029],[125.857516317000091,52.874422303000117],[125.856947877000039,52.864319560000084],[125.861030315000164,52.856025492000114],[125.867438192,52.849359233000101],[125.976940552000144,52.764997458],[125.985260458000084,52.764532370000055]],[[125.668690633000097,52.877962138000086],[125.691738322000162,52.881295268000073],[125.736490112000126,52.895790507000029],[125.837362508000126,52.906720073000102]],[[126.066702515000145,52.783187562000123],[126.088044881000144,52.775410258000122],[126.104064576000098,52.754455465000021],[126.066030721000061,52.744171855000033],[126.049029176000147,52.737092183000087],[126.035128215000157,52.727118632999989],[126.061948283000106,52.696629537000021],[126.068614543000137,52.679886373000059],[126.052646526000103,52.672496644000049],[126.027686808000055,52.671178894],[126.002572063,52.665494487000061],[125.982779989000051,52.653040467000054],[125.97316817300009,52.631568909000023],[125.977302287000043,52.610769145000077],[125.990841512000088,52.586429545000058],[126.009238323000091,52.568394471000076],[126.028048544000114,52.566379090000012]],[[125.985260458000084,52.764532370000055],[126.007481324000139,52.778665874000083],[126.017816610000068,52.782386577000111],[126.066702515000145,52.783187562000123]],[[120.624967489000085,51.905334168000095],[120.647601766000093,51.911018575000057],[120.662071167000079,51.92504872700006],[120.683516886,51.959310202000083],[120.705789429000106,51.979954936000084],[120.710905396000044,51.988326518000051],[120.711577189000081,52.00158152300007],[120.707546428,52.01240773500011],[120.701086874000055,52.022872213000042],[120.696384319,52.034473572000095],[120.697314494000011,52.048710429000053],[120.7056344,52.061035258000018],[120.718036744000074,52.06653879800011],[120.731989381000062,52.070181987000083],[120.745063518000109,52.076667379000057],[120.753073365000091,52.08633087200009],[120.766664266000078,52.108448385000102],[120.779169963000072,52.117595114000082],[120.774312378000161,52.124261374000085],[120.771263469000019,52.132477926000021],[120.771263469000019,52.14097869900003],[120.77555261200007,52.148368429000058],[120.784079224000095,52.158006083000075],[120.783200725000086,52.161985169000033],[120.777412964000064,52.164956564000065],[120.771780233000072,52.171622824000067],[120.766664266000078,52.179555155000017],[120.753745158000072,52.194463807000076],[120.751264689000095,52.202964579000067],[120.752349894000076,52.211852926000077],[120.75705245000006,52.227872620000042],[120.758085979000043,52.237406922000034],[120.738965699000062,52.256604716000041],[120.654939820000095,52.299108582000102],[120.635767863000126,52.32618703200005],[120.633442424,52.335462952000071],[120.629101604000084,52.340888977000063],[120.626156047,52.34680592900007],[120.628378133000069,52.357890524000069],[120.633442424,52.361740418000025],[120.643157593000126,52.366339620000062],[120.652200968000159,52.372463278000041],[120.656231731000048,52.381429139000076],[120.660417522000103,52.398792420000078],[120.681398153000032,52.422976990000066],[120.690389853000056,52.439125875000045],[120.690389853000056,52.470157573000066],[120.692560262000029,52.47460174600009],[120.701965373,52.488761088000032],[120.704135783000083,52.497830302000082],[120.704807577,52.50917328000007],[120.708114869000042,52.518139140000116],[120.72397953300009,52.542168681000035],[120.707391398000084,52.550333557000059],[120.654474732000097,52.566999207],[120.608741089000148,52.574001363],[120.539598023000053,52.603663636000064],[120.491848999000013,52.617254537000051],[120.464150432,52.636038920000047],[120.454021851000107,52.639036154000067]],[[120.454021851000107,52.639036154000067],[120.429940634000104,52.636090597000063],[120.389426311000079,52.622163798000074],[120.367618856000036,52.617254537000051],[120.261113729000101,52.611053365000046],[120.242096802000162,52.607229309000033],[120.198120158000108,52.58911672],[120.175950968000052,52.583742371000042]],[[126.068614543000137,52.595317892000068],[126.082773885000108,52.59335418700006],[126.17036543800009,52.547594707000101],[126.212326701000109,52.533047791000072],[126.210466349000114,52.511421204000087],[126.200647827000012,52.486539002000129],[126.200337769000043,52.467082825000048],[126.216770875000122,52.464757386000102]],[[126.028048544000114,52.566379090000012],[126.039520712000069,52.56966054400003],[126.050786174,52.571184998000021],[126.05910607900006,52.575499980000089],[126.062516724000091,52.587178854000072],[126.068614543000137,52.595317892000068]],[[126.246794881000085,52.465842591000111],[126.275992066000072,52.463284608000023],[126.288962850000132,52.45002960300009],[126.296197551000091,52.435198466000074],[126.312682333,52.417421773000044],[126.343688192000059,52.391376852000079],[126.350716187000103,52.376907451000037],[126.344308309000155,52.357580465000083],[126.315731242000084,52.316213481000048],[126.344411663000074,52.302622579000044],[126.421202840000149,52.287300517000077],[126.43928959200008,52.275285747000041],[126.392057333000025,52.264356181000053],[126.312217245000056,52.227950134000068],[126.309323365000068,52.213868307000055],[126.316713095000068,52.199760641000111],[126.33283614100003,52.193378601000077],[126.350716187000103,52.191699117000027],[126.453293905000066,52.165628358000035],[126.493808228000091,52.161261698000047],[126.531170288000055,52.152657572000109],[126.555974976000073,52.130643412000026],[126.55132409700002,52.112970073000028],[126.51980147300003,52.061267801999989],[126.514427125,52.048710429000053],[126.514427125,52.042535096000094],[126.491586142000074,52.038788554000078],[126.467091512000025,52.031657207000038],[126.44735111500006,52.01878977500003],[126.43928959200008,51.997860820000042],[126.446059204000107,51.982538757000086],[126.64790734900015,51.741261496000035],[126.662428426000019,51.733432516],[126.713588095000091,51.723174744000019],[126.715758504000064,51.717490336000068],[126.725577027000156,51.708731182000079],[126.72795414300009,51.703046774000043],[126.724853557000074,51.697543234000065],[126.717877239000074,51.69092865000006],[126.710745891000101,51.686019389000123],[126.707335246000071,51.685631816000111],[126.715758504000064,51.663178407000018],[126.724543498,51.649587505000014],[126.723716675000162,51.63589325],[126.703976278000084,51.613594869000039],[126.675140829000043,51.588376770000096],[126.676897827000118,51.576594543000098],[126.700565634000156,51.562719422000029],[126.775599813000156,51.545769552000095],[126.807432496000104,51.534219869000069],[126.830376832000127,51.508123271000088],[126.801593058000094,51.477220765000098],[126.792704712000102,51.459056498000066],[126.789294068000061,51.435802104000047],[126.800301148000074,51.41895558700007],[126.825932658000113,51.412082622000085],[126.876885620000053,51.409886373000077],[126.890114787000073,51.407018332000021],[126.901948690000097,51.400998027000085],[126.909441773000026,51.39110199],[126.908925009000086,51.377020162000051],[126.897504517000073,51.361956482000082],[126.880296265000084,51.356220398000019],[126.860865927000077,51.353920797000072],[126.84345096900006,51.349373271000061],[126.827017863000037,51.338986308000031],[126.814150432000019,51.324930319000018],[126.807329142000071,51.30810964000004],[126.808982789000083,51.289066875000074],[126.823710572000095,51.265554098000067],[126.845879761000106,51.251472270000065]],[[126.216770875000122,52.464757386000102],[126.246794881000085,52.465842591000111]],[[120.578613729000097,51.907685446000059],[120.624967489000085,51.905334168000095]],[[120.511899455000048,51.876188660000096],[120.52662723800006,51.877428894000033],[120.54114831600009,51.882984111000027],[120.549364868000055,51.89047719400007],[120.556134481000072,51.898383688000123],[120.566314738000131,51.905334168000095],[120.578613729000097,51.907685446000059]],[[120.502080933,51.877248027000078],[120.511899455000048,51.876188660000096]],[[120.153781780000031,51.663979390000023],[120.165615682000066,51.668552755000078],[120.181480347000047,51.682970479000076],[120.319301392000114,51.776039734000065],[120.374440146000097,51.802317200000019],[120.408339885000032,51.826088359000082],[120.427563518000056,51.833658956000036],[120.454021851000107,51.836449484000084],[120.464822225000034,51.840196025000111],[120.471488485000066,51.849006857000106],[120.47593265800009,51.859135437000063],[120.480893596000101,51.866861064000048],[120.493140910000079,51.875723572000069],[120.502080933,51.877248027000078]],[[120.122362509000027,51.667157491000083],[120.153781780000031,51.663979390000023]],[[119.802433716,51.213283386000072],[119.814991090000092,51.21589304600009],[119.814784383000131,51.222740174000037],[119.809410035000099,51.232610372000025],[119.805947714000069,51.244005026000124],[119.816231324000057,51.268990581000097],[119.819641968000042,51.274726665000074],[119.828840373000048,51.279713441000027],[119.850647827000103,51.284338481000091],[119.860621379,51.289015198000058],[119.883307332000072,51.31800567700013],[119.891885620000096,51.322553203000055],[119.915656779000074,51.330743917000078],[119.912711223000144,51.349631653000117],[119.900153849000048,51.370250550000023],[119.895296265000127,51.383970642000051],[119.943045289,51.390817770000112],[119.952863811000043,51.39766489700007],[119.956842896000069,51.40451202500013],[119.959995158000083,51.412289327000039],[119.967281535000097,51.421823629000031],[119.982732789000067,51.442158305000063],[119.980562378000059,51.452726135000049],[119.974154501000044,51.464172465000033],[119.977203411,51.487013449000059],[119.992189575000054,51.503265686000063],[120.042160686000102,51.538534851000051],[120.052909384000031,51.552203268000071],[120.053529500000081,51.577033794],[120.056733439000084,51.596386617000078],[120.064898316000097,51.614886780000077],[120.085878947000083,51.64436818500009],[120.100451701000054,51.659948629000027],[120.108203166000067,51.665193787000064],[120.122362509000027,51.667157491000083]],[[126.954606975000104,51.329581198000071],[126.972176961000059,51.324000143000049],[126.981168661000083,51.308858948000037],[126.977758017000042,51.296559957000099],[126.967939495,51.281547954000118],[126.947113892000061,51.258138530000068],[126.916314738000096,51.232765402000055],[126.908925009000086,51.221629131000057],[126.905152629000156,51.208115743000079],[126.903809042000091,51.193387960000067],[126.905411011000126,51.164268291000056],[126.909596802000067,51.146000672000085],[126.922980998000071,51.107915142000039],[126.925823202000061,51.086004334000094],[126.931765992000066,51.063783468000068],[126.94644209900008,51.048332215000059],[126.981168661000083,51.02768748000004],[127.032328329000109,50.972445374000031],[127.047107788000119,50.967226054000022],[127.110773153000082,50.931517640000024],[127.14425948100012,50.90350901300009],[127.220740601000102,50.788167216000076],[127.241101115000106,50.774679667],[127.266215861000148,50.76408599900013],[127.287351522,50.751011862000084],[127.296446575000061,50.730082907000096],[127.295516399,50.722796529],[127.293242636000059,50.715355123000094],[127.289883668000073,50.708378805000095],[127.285801229000072,50.702487692],[127.282287232000101,50.694839580000107],[127.283837525000138,50.688276673000033],[127.287093140000025,50.682023824000041],[127.288953492000019,50.675150859000055],[127.294947958000137,50.666417542],[127.327090698,50.637272034000077],[127.343988892000084,50.627763570000084],[127.358716675000096,50.60502594000009],[127.367088258000138,50.577792460000111],[127.364814494000029,50.554744772000035],[127.356856323000159,50.544616191],[127.333705282000096,50.52503082300008],[127.323628378000137,50.513765361000097],[127.310295858000018,50.488392233000113],[127.302647746000048,50.477591859000071],[127.288953492000019,50.466016337000028],[127.304663127000083,50.451443584000074],[127.349156535000077,50.42617380800003],[127.35850997,50.415115051],[127.35964685100015,50.392894186000078],[127.358716675000096,50.381318665000023],[127.354789266000012,50.373463847],[127.34574589000016,50.364420472000049],[127.337529338000138,50.352689921000049],[127.331844930000159,50.340184225000044],[127.330656372000078,50.328195292],[127.354634237000084,50.298636374000054],[127.404812053,50.275950419000097],[127.578393188000064,50.220553284000047],[127.590640503000088,50.208719381000023],[127.589813680000077,50.186395163000057],[127.58671309500005,50.167171530000033],[127.580615276,50.149136454000043],[127.570176636000042,50.13022288000009],[127.506614624000065,50.063456930000072],[127.486667522000062,50.025629782000081],[127.494418986000028,49.973178203000046],[127.52160079000015,49.941190491000029],[127.534003133000112,49.922483622000058],[127.532246135000037,49.907652486000032],[127.520877320000125,49.891787822000097],[127.511627238000131,49.869050192000131],[127.506717977000108,49.844297181000016],[127.508113241000046,49.822334697000045],[127.538654012000052,49.789933574000045],[127.64428064000009,49.767144267000063],[127.679989055000078,49.739187318000049],[127.686293580000097,49.716811422000077],[127.686965373000078,49.698879700000091],[127.689962606,49.681464742000074],[127.703605185000015,49.660639141],[127.722001994000095,49.648598531000047],[127.770009400000049,49.633870748000035],[127.789904826000054,49.623070374000108],[127.809645224000121,49.607102356000055],[127.830884237000078,49.593873189000064],[127.854655395,49.584881491000019],[127.907313681000062,49.580230612000051]],[[126.845879761000106,51.251472270000065],[126.869909302,51.251730652000035],[126.890683228000114,51.271496887000083],[126.892905314000018,51.282013041000042],[126.889184611000019,51.289325257000129],[126.884843791000094,51.295629781000045],[126.885308879000036,51.302890320000117],[126.891355021000095,51.310512594],[126.899364868000077,51.316507060000035],[126.908253215000059,51.321235453],[126.917296591000138,51.324723613000046],[126.934453166000026,51.328754375000059],[126.954606975000104,51.329581198000071]],[[119.772306356000115,51.218476868],[119.802433716,51.213283386000072]],[[119.198439576000055,50.413099671000069],[119.206759481000063,50.415115051],[119.216164592000098,50.424933573000075],[119.243656454000075,50.445500793000051],[119.261226440000144,50.479245504000048],[119.264585409000063,50.482759502000093],[119.264016968000078,50.489580790000034],[119.262363322000056,50.491957906],[119.259159384000156,50.493249817000034],[119.254508505000103,50.497022197000049],[119.250891155000147,50.504515279000017],[119.254405152,50.509527893000055],[119.260606324000094,50.51407542],[119.264585409000063,50.520018209000014],[119.286547892000044,50.577740784000085],[119.285255982000081,50.588902894000043],[119.293575887000145,50.599238179000039],[119.303084351000109,50.602752177000085],[119.31388472600014,50.604612529000079],[119.326132040000061,50.609986877000054],[119.335330445000068,50.619236960000066],[119.341169881000042,50.62807362900007],[119.348973023000099,50.634688213000075],[119.364372600000081,50.637272034000077],[119.373726034000015,50.642749736000056],[119.383079468000062,50.666624247000058],[119.391657756000086,50.672050273000124],[119.403905070000121,50.673238831000035],[119.417754354000067,50.676287741000081],[119.442817424000054,50.685072734000059],[119.457286825000097,50.6962865200001],[119.496664267000028,50.737059225000067],[119.504932495000048,50.750598450000055],[119.514854371000069,50.791939596000091],[119.514079224000056,50.813385315000019],[119.49749108900005,50.835916240000032],[119.515784546000077,50.848111878000068],[119.527980185000104,50.866767070000023],[119.529995565000036,50.887075908000057],[119.517954956000096,50.904800924000071],[119.573197063000123,50.945832011],[119.594022664000079,50.969551494000044],[119.604254598000068,50.978181458000094],[119.683216187000085,51.016060283000073],[119.710191285000121,51.038539531000097],[119.710397990000104,51.062465719],[119.728433065000161,51.064532776000064],[119.740835409000056,51.071534932000063],[119.748276815000054,51.083394674],[119.7507056070001,51.099982809],[119.754633017000117,51.114297180000065],[119.761712688000102,51.128172302000038],[119.765226685000073,51.142434998000041],[119.758147013000155,51.158015442000064],[119.767087036000078,51.159720764000028],[119.772823121000158,51.162692159000031],[119.785432170000092,51.171658021000056],[119.758147013000155,51.199020692000019],[119.762177776000044,51.215040385000052],[119.772306356000115,51.218476868]],[[119.167692099000135,50.414081523000036],[119.198439576000055,50.413099671000069]],[[119.187949260000096,50.354705303000102],[119.175340210000115,50.35610056600008],[119.180507853000108,50.36979482],[119.171877890000076,50.375685934],[119.141233765000038,50.376616110000057],[119.133482300000139,50.381473694000064],[119.137564738000037,50.392532451000065],[119.146711466000113,50.404263001000047],[119.154876343000126,50.411394348],[119.167692099000135,50.414081523000036]],[[119.250787802000104,50.342509665000065],[119.246446981000133,50.344163310000042],[119.233011109000074,50.352741598000065],[119.223709351000025,50.35610056600008],[119.213580770000021,50.356565654000107]],[[119.213580770000021,50.356565654000107],[119.187949260000096,50.354705303000102]],[[118.990441936000082,49.979327698000091],[119.091676066000161,49.986562398000061],[119.189551229000074,50.007284648000095],[119.208516480000128,50.015139466000036],[119.223295940000128,50.025009664000024],[119.251046183000085,50.048264058000129],[119.301327353000033,50.07978668300008],[119.316210165000086,50.092654114000098],[119.328612508000163,50.10805369100008],[119.337759237000057,50.124125061000044],[119.343960408000044,50.142418519000032],[119.348301229000072,50.184586488000079],[119.347267700000089,50.195076803000021],[119.343598674000134,50.20220815100005],[119.334141886000054,50.211148174000087],[119.331558065000138,50.217349345000073],[119.333780152000031,50.276260478000083],[119.338534383000024,50.294037170000095],[119.350419963000093,50.301478577000026],[119.362460572000032,50.30416575200006],[119.365509481,50.310832011000073],[119.36395918900007,50.319461975000124],[119.356621134000079,50.340752666000085],[119.352900431000137,50.345506897000078],[119.333573446000116,50.349899394],[119.314349813000092,50.351708069000082]],[[119.314349813000092,50.351708069000082],[119.250787802000104,50.342509665000065]],[[118.923779338000031,49.991626689000057],[118.935768270000096,49.989611308000079],[118.947808879000092,49.985218811],[118.962536662000105,49.982014873000125],[118.990441936000082,49.979327698000091]],[[118.712939494000068,49.949458721000084],[118.741464884000038,49.953076071000069],[118.791642700000068,49.966356914000087],[118.891378215000032,49.979327698000091],[118.902488648000087,49.982118226000054],[118.912927288000105,49.987699280000086],[118.923779338000031,49.991626689000057]],[[118.670564820000152,49.962067770000019],[118.712939494000068,49.949458721000084]],[[118.241702108000027,49.729162089000042],[118.305160767000075,49.767092591000036],[118.328725220000081,49.773035380000053],[118.353633260000038,49.776446025000084],[118.372960246000105,49.786316224000061],[118.380918417000146,49.811482646000101],[118.393734171000062,49.820009258000098],[118.455849244000092,49.828639221000046],[118.477036581000164,49.835977275000047],[118.481067343000063,49.842436829000107],[118.486441691000095,49.860678610000051],[118.49078251200001,49.869515280000073],[118.498017212000093,49.876749980000042],[118.521271607000017,49.894061585000131],[118.554551229000026,49.909771221000099],[118.570622600000092,49.920726624000068],[118.599974813000074,49.930958557000068],[118.644364868000025,49.954574687000061],[118.670564820000152,49.962067770000019]],[[116.684277792000159,49.823264873000099],[116.722311646000094,49.801664124000027],[117.057588338000073,49.67288645400005],[117.252925252000068,49.62245025600005],[117.472860149000098,49.614285381000016],[117.758837525000104,49.512741191000018],[117.768862752000075,49.510984192000038]],[[118.229403117000061,49.729213766000058],[118.241702108000027,49.729162089000042]],[[117.836868938000123,49.509020488000019],[117.840899699000033,49.509640605000087],[117.873765910000145,49.513206279000045],[117.89381636600001,49.546640931000027],[117.904668417000039,49.552738749000085],[117.930713338000032,49.567311503000056],[118.017116333000104,49.595785217000085],[118.054943481,49.614026998000057],[118.071273234000046,49.625137432000074],[118.08915328,49.640123597000027],[118.106413208000049,49.651802471000011],[118.168631633000075,49.671491191000072],[118.188475383000082,49.68125803700012],[118.208215780000046,49.695417379000062],[118.223408651000057,49.712108867],[118.229403117000061,49.729213766000058]],[[128.671866496000064,49.611443177000055],[128.686749309000106,49.603226624000015],[128.734188274000076,49.58441640300002],[128.7595097250001,49.577801819000101],[128.786588176000066,49.575321350000124],[128.796923462000052,49.572479146000049],[128.801677694000148,49.565141093000065],[128.803227987000071,49.555167542000063],[128.803434692,49.544263815000093],[128.799507284000072,49.531861471000028],[128.790412232,49.527107239000131],[128.779250122000064,49.525091859000085],[128.769328247000146,49.520699361000098],[128.754135376000022,49.50245758100003],[128.750207967000051,49.484525858000055],[128.76012984200014,49.470883281000042],[128.786588176000066,49.465457255000089]],[[128.628664998000147,49.575321350000124],[128.635176229000081,49.578163554000085],[128.666182089000017,49.609479472000018],[128.671866496000064,49.611443177000055]],[[127.967930135000074,49.603226624000015],[127.991597941000066,49.598730774000089],[128.012475220000113,49.587413635000118],[128.046891724000034,49.55826812800008],[128.067148886000041,49.546692607000054],[128.092470338000055,49.541576640000059],[128.198303670000087,49.538992819000057]],[[127.907313681000062,49.580230612000051],[127.920697876000077,49.581109111],[127.930154664000042,49.585191549000015],[127.940800008000053,49.595888570000014],[127.947931356000083,49.601211243000066],[127.955476116,49.603019918000044],[127.967930135000074,49.603226624000015]],[[128.5512537030001,49.588447164000101],[128.628664998000147,49.575321350000124]],[[128.320363404000148,49.544780579000033],[128.344754680000108,49.547984518000092],[128.352816204000078,49.554495749000083],[128.365011841000069,49.56974029600012],[128.372039836,49.575321350000124],[128.383512004000124,49.579352113000127],[128.5512537030001,49.588447164000101]],[[128.267860148000068,49.558784893000038],[128.320363404000148,49.544780579000033]],[[128.198303670000087,49.538992819000057],[128.225072063000084,49.541835023000047],[128.245432577000088,49.55139516200002],[128.267860148000068,49.558784893000038]],[[117.795011027000157,49.519149068000061],[117.803589315000067,49.518890686000091],[117.815784953000104,49.511966045000023],[117.822606242000063,49.510260722000041],[117.831908,49.509795634000042],[117.836868938000123,49.509020488000019]],[[117.768862752000075,49.510984192000038],[117.777441040000099,49.51284454400006],[117.795011027000157,49.519149068000061]],[[128.853560832000142,49.480546774000075],[128.87919234200001,49.479719951000064],[128.901929973000051,49.471710104000081],[128.94709517400014,49.449540914000053],[128.998151490000112,49.441272685000015],[129.014584595000088,49.431092428000042],[129.050551392000159,49.376677145000045],[129.066881145000025,49.361639303000075],[129.087861776000068,49.352079163000084],[129.115353638000158,49.348771871000068]],[[128.786588176000066,49.465457255000089],[128.809842571000161,49.468712870000061],[128.853560832000142,49.480546774000075]],[[129.40339807200013,49.430679017000031],[129.455074504000095,49.427268372000086],[129.480602662000024,49.421273906000081],[129.502410116000135,49.410783590000037],[129.519670044,49.397089336000093],[129.527731568000036,49.384842021000068],[129.53021203600008,49.369339091000072],[129.532072388000074,49.321538391000061],[129.538997030000075,49.303710022000033],[129.551812785000038,49.29048085600003],[129.571759889000077,49.279835510000041],[129.619198853000057,49.274254456000037]],[[129.340972941000075,49.341175436000114],[129.362056926000093,49.349805400000051],[129.373219035000034,49.369855856000086],[129.371462036000082,49.410576885000054],[129.378696737000041,49.425046286000097],[129.40339807200013,49.430679017000031]],[[129.21787968000001,49.390784811000074],[129.245578247000026,49.385927226000078],[129.272346639000034,49.375281881000078],[129.316064901,49.344120993],[129.340972941000075,49.341175436000114]],[[129.115353638000158,49.348771871000068],[129.136024211000063,49.354146220000032],[129.171164185000123,49.380346171000056],[129.193901815,49.389699605],[129.21787968000001,49.390784811000074]],[[129.669221639000057,49.27916371700006],[129.711182902000076,49.274151103000108],[129.735057414000039,49.238907776000119],[129.73753788300013,49.205473124000051],[129.741775351,49.195706278000088],[129.755624634000014,49.184285787000093],[129.775985149000064,49.177567851000063],[129.824664347000066,49.174157206000032],[129.841510864000043,49.167180888000033],[129.845438273000013,49.154055074000055],[129.841510864000043,49.109199931],[129.862491496000075,49.106512756000043],[129.883162069000093,49.099794821000032],[129.920679159000088,49.081863099000046],[129.911687459000063,49.059280497000103],[129.913444458000129,49.039540100000053],[129.926466920000053,49.025690816000079],[129.974215943000104,49.015148825000026],[129.996850220000056,49.002384746000061],[130.037467896000123,48.971999003000107],[130.201798951000058,48.882598775000119],[130.24934126800008,48.864512024000092]],[[129.619198853000057,49.274254456000037],[129.669221639000057,49.27916371700006]],[[130.439717245,48.896499736000081],[130.465348756000083,48.891332093000088],[130.476200806000122,48.879498190000064],[130.486639445000037,48.86368520200007],[130.511650839000026,48.855520325000057],[130.540899699000079,48.853453268000081]],[[130.24934126800008,48.864512024000092],[130.293576294000104,48.870144755000027],[130.338121379000086,48.885337626000066],[130.38680057800002,48.896293030000024],[130.439717245,48.896499736000081]],[[130.650660441000014,48.876397604000019],[130.674328248000052,48.870816549000025],[130.676498658000071,48.857432353000078],[130.666680136000082,48.841464335000026],[130.62781945800009,48.796040751000092],[130.533251587000052,48.635792135000045],[130.529737590000082,48.616258443000035],[130.540796346000093,48.598352560000066],[130.562397095000051,48.588146464000019],[130.586374960000057,48.583443909000025],[130.607665650000058,48.576725973000109],[130.620171346000063,48.560499573000087],[130.620791463000103,48.549311626000062],[130.614796998000088,48.530165507000063],[130.613453410000034,48.519468486000036],[130.615727173000096,48.508099671000068],[130.624305461000063,48.488359274000103],[130.626372518000039,48.482261455000028],[130.639291627000034,48.477248841000076]],[[130.540899699000079,48.853453268000081],[130.564877564000085,48.855882060000042],[130.624925578000102,48.874330546000053],[130.62528640000005,48.874359528000056],[130.650660441000014,48.876397604000019]],[[130.715876099000127,48.499056295000102],[130.744298137000158,48.497325135000025],[130.758974243000068,48.485723775000068],[130.75959436100004,48.467921245000056],[130.746468547000063,48.44779327500008],[130.73830367100004,48.429809876],[130.743264608,48.411593934000038],[130.763625123,48.382965190000064],[130.773753703000068,48.364232483000066],[130.779644816000086,48.356377665000039],[130.790290161000087,48.348212790000034],[130.803415975,48.342735087000037],[130.814474732,48.33997039900008],[130.822122843000102,48.333769226000086],[130.825120077000122,48.317775371000053],[130.823983195000096,48.294159241000031],[130.819435669000086,48.281886088000093],[130.773857056,48.244188131000058],[130.768896118000043,48.236746725000032],[130.763625123,48.22527455700002],[130.752773072000082,48.18961781900002],[130.746468547000063,48.184372661000097],[130.729518677000158,48.177964783000064],[130.707297811000103,48.163366191000094],[130.674741659000063,48.135926006000048],[130.663372844000094,48.116443990000036],[130.664819784000088,48.102052104000038],[130.670917603000021,48.086575012000125],[130.674741659000063,48.063940735000088],[130.682389771000146,48.050349834000073],[130.857366171000081,47.927773336000072],[130.906975546000069,47.884261780000045],[130.941702108000072,47.820596415000054],[130.942322225,47.7898231],[130.938291464000088,47.75109161400006],[130.941805461000115,47.717967021000064],[130.965679973000135,47.703936870000049],[130.983456665000062,47.700035299000021],[131.023350871000105,47.682284445000064],[131.044124797000052,47.677220154000011],[131.084329061000062,47.675127259000035]],[[130.639291627000034,48.477248841000076],[130.715876099000127,48.499056295000102]],[[134.386349732000099,48.381337383000115],[134.405470012000023,48.370330302000028],[134.453115683000078,48.344182027000031],[134.471305787,48.339892883000047],[134.489805949000072,48.339169414000068]],[[133.936971477000043,48.27328196200007],[133.966427043000124,48.27865631100012],[133.982446737000089,48.285167542000082],[134.024821411000119,48.31506235800002],[134.040634400000101,48.322477926000019],[134.057170858000063,48.327180482000088],[134.116081991000101,48.335190328000081],[134.206205689000058,48.359659119000028],[134.367126099000131,48.377048239000047],[134.386349732000099,48.381337383000115]],[[134.542619263,48.357307841000093],[134.569491008,48.315527446000047],[134.61134891800009,48.285425924000052],[134.661164999,48.266977437000051],[134.700852499,48.261525574000061]],[[134.489805949000072,48.339169414000068],[134.508202759000028,48.342580058000081],[134.525876099000072,48.348987936000029],[134.542619263,48.357307841000093]],[[133.877543579000076,48.275297344000094],[133.936971477000043,48.27328196200007]],[[133.796618286000012,48.250596008000102],[133.814808390000053,48.255117696000028],[133.849534953000159,48.269302877000072],[133.867621704000101,48.274315491000053],[133.877543579000076,48.275297344000094]],[[134.718732544000147,48.263411764000082],[134.703022909000083,48.252559713000025],[134.687416626000129,48.219848531000039],[134.682972453000048,48.135512594000019],[134.66271529200003,48.107969056000044],[134.64793583200003,48.102181295000079],[134.586440877000086,48.061150208000115],[134.567217245000052,48.040376282000082],[134.559362427000053,48.009525452000091],[134.566907186000094,47.985495911000058],[134.601323691000061,47.944128927000023],[134.587681112000041,47.925912984000078],[134.59904992700001,47.91069427500004],[134.622717733000059,47.900229798000098],[134.645765422000125,47.896302389000127],[134.657754354000076,47.88669057200012],[134.667572877000055,47.864676412000037],[134.674084107,47.84044016600005],[134.676461223000047,47.824317119000071],[134.696511679000082,47.795068258000029],[134.76978885900013,47.741014710000044],[134.765137980000077,47.718173727000035],[134.772579387000064,47.710732321000094],[134.725450481000053,47.663241679000109],[134.713978313000155,47.656136170000067],[134.692894329000126,47.648901469000108],[134.686693156000047,47.631150615000095],[134.686176392000107,47.608852234000025],[134.682662395000136,47.587845764000022],[134.668192994000037,47.573996481000066],[134.624268026000095,47.549631043000048],[134.61496626800016,47.53663442],[134.60411421800012,47.527720236000093],[134.560602662000065,47.481805725000115],[134.556881959000066,47.471186219000018],[134.53528121,47.465579326000082],[134.500451294000129,47.43891428700006],[134.484638306000136,47.43018097000008],[134.471925903000056,47.428630676000054]],[[134.700852499,48.261525574000061],[134.718732544000147,48.263411764000082]],[[133.737913860000049,48.251086935000032],[133.796618286000012,48.250596008000102]],[[133.463718710000137,48.089520569000044],[133.524386841000023,48.095437521000051],[133.544023886000161,48.101509501000081],[133.559940227000084,48.113291728],[133.572032512000078,48.132773743000072],[133.577820272000054,48.145021057000108],[133.584848267000154,48.155356344000026],[133.593839966000019,48.16419301400002],[133.605518840000059,48.171634420000046],[133.621435181000095,48.177267151000066],[133.654508097000075,48.18390757300007],[133.670217733000072,48.189979553000015],[133.685513957000012,48.202071838],[133.707734823000067,48.231656596000036],[133.721274048000055,48.244756572000099],[133.737913860000049,48.251086935000032]],[[133.223733358000061,48.125978293000045],[133.262800741000149,48.119441223000067],[133.272722616000067,48.115152079],[133.290706015000126,48.104403381000068],[133.301454713000055,48.101276957000024],[133.323675578,48.100114237000113]],[[132.789651327,47.932734274000026],[132.805877727000109,47.936196594000066],[132.820657186000119,47.942371928000043],[132.833369588000096,47.951596171000048],[132.853626750000103,47.976142477000039],[132.8647888590001,47.985650940000099],[132.940339803000029,48.022573751000053],[132.940753214000154,48.026707866000052],[133.024675741000067,48.052442729000049],[133.03284061700009,48.056757711000031],[133.039351848000024,48.061511943000099],[133.04400272700002,48.066214498000093],[133.047516724000047,48.071640523000056],[133.051030721000132,48.078539327000058],[133.060952596000106,48.091846009000065],[133.075421997000035,48.100915222000125],[133.091958456000043,48.106780497000031],[133.185182739000084,48.124815573000021],[133.223733358000061,48.125978293000045]],[[133.379486125000085,48.10631541],[133.396229289000132,48.105927837000095],[133.413179159000038,48.102956441000075],[133.450799601000142,48.091380921000038],[133.463718710000137,48.089520569000044]],[[133.323675578,48.100114237000113],[133.379486125000085,48.10631541]],[[132.705728801000078,47.960381164000054],[132.722471965000068,47.95893422500005],[132.738181600000132,47.954128317000041],[132.762572877000025,47.939374695000126],[132.774871867,47.93376780200002],[132.789651327,47.932734274000026]],[[132.475768677000019,47.706753235000022],[132.524654582000096,47.707528381000131],[132.536436809000122,47.711068217],[132.547185507000052,47.71677846300004],[132.556693970000083,47.723496399000069],[132.574160604000156,47.73959360800005],[132.580361776000018,47.747991028000044],[132.582325480000065,47.75613006600004],[132.580775188000132,47.76483754500002],[132.573643840000102,47.782226664000049],[132.573850545000084,47.788350322],[132.576434367000047,47.794241435000103],[132.581395304000011,47.800700989000049],[132.607440227000097,47.82762441000007],[132.658806601000038,47.869818218000049],[132.668005005000055,47.881316224000059],[132.672345826000139,47.894442037000019],[132.671415650000085,47.902503560000113],[132.668108358000097,47.909324850000061],[132.664077596000084,47.915836081000052],[132.660873657000025,47.92301910400009],[132.660356893000085,47.931339010000059],[132.663147420000143,47.938677063000043],[132.668108358000097,47.945136617000102],[132.674619589000031,47.950614319000081],[132.689088990000073,47.95769399000001],[132.705728801000078,47.960381164000054]],[[131.418365520000123,47.742616679000079],[131.440896444000032,47.741169739000085],[131.475002889000109,47.734477641000055],[131.507765747,47.721532694000032],[131.537944784000103,47.703213399000063],[131.577425578000145,47.668564352000047],[131.58476363200009,47.664688619000103],[131.593962037000097,47.662311503000055],[131.603263794000156,47.661536357000031]],[[131.084329061000062,47.675127259000035],[131.103862753000044,47.676548360000126],[131.129184204000069,47.681225078000082],[131.167218059000163,47.697141419000033],[131.210109497000133,47.709207865000096],[131.418365520000123,47.742616679000079]],[[132.332418254000061,47.736518860000032],[132.366524699000024,47.735330302000094],[132.400631145000091,47.729800924000088],[132.45323775300011,47.710525615000066],[132.475768677000019,47.706753235000022]],[[132.117030884000144,47.689441630000019],[132.161679321000065,47.690010071000088],[132.188964478,47.695642802000108],[132.202193645000079,47.70050038600003],[132.250769491000085,47.725356751000092],[132.264412069000059,47.728844910000035],[132.332418254000061,47.736518860000032]],[[132.025356893000151,47.697864889000115],[132.089228963000096,47.694764303000071],[132.117030884000144,47.689441630000019]],[[131.914045858,47.667634176],[131.92448449800014,47.66892608700006],[131.932959433000121,47.672233379000048],[131.957350708000035,47.686935323000043],[131.966549114000031,47.690010071000088],[132.025356893000151,47.697864889000115]],[[131.702999309000063,47.696159567000038],[131.780410604000053,47.679106344000033]],[[131.603263794000156,47.661536357000031],[131.612462199000163,47.662001445000058],[131.621660605000159,47.663810120000065],[131.63065230300009,47.666859029000094],[131.683568970000067,47.69460927400003],[131.702999309000063,47.696159567000038]],[[131.83591109200006,47.684532370000099],[131.854617961000031,47.684067282000072],[131.864849894000031,47.681560974],[131.894305461000044,47.670011292000041],[131.903503866000051,47.66809926400002],[131.914045858,47.667634176]],[[131.780410604000053,47.679106344000033],[131.799014120000038,47.679364726000088],[131.83591109200006,47.684532370000099]],[[134.471925903000056,47.428630676000054],[134.43657922400007,47.429819235000068],[134.414978475,47.439224345000028]],[[134.414978475,47.439224345000028],[134.401852661000021,47.437363993000034],[134.389036907000161,47.432764791000082],[134.378184856000132,47.43018097000008],[134.354000285000154,47.429354147000069],[134.332606242000054,47.426356914000039],[134.31286584500009,47.420129904000063],[134.292815390000101,47.409717103000034],[134.279482870000095,47.397805685],[134.257468709000022,47.367239075000086],[134.24506636600006,47.355095113000075],[134.20300175,47.338429464000043],[134.183571411000059,47.327499899000074],[134.175509888000136,47.310420838000041],[134.170135539000057,47.28680470800002],[134.160006959000043,47.271637675000093],[134.154115845000149,47.257891744000077],[134.161867310000048,47.238435568000071],[134.168378541000038,47.230580749000055],[134.186465292000094,47.213708395000069],[134.193183228000066,47.210478617],[134.197213989000034,47.205336813000073],[134.195560344,47.193709616000021],[134.189772583000035,47.172935689000084],[134.19876428300006,47.155546570000055],[134.216230917000132,47.137666524000011],[134.227289673000087,47.117745260000092],[134.217161093000072,47.094439189000056],[134.197110636000104,47.085163269000034],[134.145744263000154,47.081184184000065],[134.124246867000011,47.070513001000066],[134.114221640000096,47.055811056000053],[134.087349894,46.998811951000064],[134.080838664000055,46.992688294000018],[134.074120728000025,46.988140768000065],[134.069159790000072,46.981241964],[134.06698938,46.967780253000043],[134.06698938,46.926800843000095],[134.062751913000113,46.906853740000074],[134.020480591000023,46.834041646000102],[134.016656535000095,46.819468892000046],[134.021410767000077,46.806136373000029],[134.035880168000119,46.789599915000039],[134.044665162,46.772004090000038],[134.041771282000013,46.752702942],[134.025854940000102,46.71081919300012],[134.014796183000101,46.665033874000088],[134.005287720000069,46.64583608000008],[133.99849762100007,46.637704225000036],[133.988027792000025,46.625165507000062],[133.967357219000064,46.611187033000064],[133.920331666000038,46.590335592000073],[133.902451620000079,46.573644104000053],[133.898834270000066,46.56325714200004],[133.896353801000089,46.538194072000024],[133.891909627000018,46.528969828000115],[133.849328248,46.480290630000084],[133.84581425000016,46.470652975000078],[133.847777955000083,46.456984558000059],[133.85439253800007,46.444659729000094],[133.861523885000054,46.441042379000024],[133.870412231000046,46.440473938000068],[133.88188440000016,46.437114970000053],[133.90028121000006,46.426572978000095],[133.921468547000018,46.410139872000045],[133.933870891000083,46.390761211000054],[133.926016073000085,46.371305034000088],[133.880850871,46.353657532000071],[133.863384237000105,46.339291484000071],[133.874442994000162,46.319783631000078]],[[133.896353801000089,46.327199199000077],[133.906999146000089,46.322470805000094],[133.91599084500001,46.312988180000033],[133.893769979000012,46.301877747],[133.894080038000084,46.291335754000059],[133.901934856000025,46.27805491200003],[133.902451620000079,46.258986308000047],[133.890049276000013,46.250821432000052],[133.869585409000024,46.244516907000033],[133.855322714000067,46.236558737000067],[133.86090376900006,46.223587952000045],[133.85284224500009,46.217541809000082],[133.836615845000154,46.20043691000005],[133.830104615000096,46.196871237000082]],[[133.874442994000162,46.319783631000078],[133.885191692000092,46.326579082000123],[133.896353801000089,46.327199199000077]],[[133.830104615000096,46.196871237000082],[133.821216269000104,46.200126852000054],[133.812948039000048,46.214182841000095],[133.806230103000132,46.217386780000069]],[[133.806230103000132,46.217386780000069],[133.793517701000042,46.21428619400011],[133.786489706000054,46.206689759000042],[133.781735474000072,46.196716207000051],[133.775120890000039,46.186690979000034],[133.766025839,46.177957662000054],[133.741014445000019,46.159044088000101],[133.720033814000089,46.150207418000022],[133.698743124000089,46.149018860000083],[133.687374309,46.141835836000027],[133.696366008000041,46.115015768000049],[133.719310344000064,46.079307353000033],[133.720033814000089,46.063752747000095],[133.694815715000061,46.022773336000071],[133.658125448000078,45.93450999],[133.649857219000125,45.927843730000077]],[[133.649857219000125,45.927843730000077],[133.627739706000114,45.937765605000081]],[[133.627739706000114,45.937765605000081],[133.617611125000053,45.936266988000071],[133.610066366000126,45.929807434000011],[133.60696578,45.919472148000111],[133.606138957000155,45.905106100000111],[133.603038371000025,45.898646546000052],[133.586501913,45.888414612000062],[133.58443485500004,45.884125469000097],[133.586088502000109,45.879836325000056],[133.585881795000148,45.876322327000096],[133.579680623000058,45.87477203400006]],[[133.579680623000058,45.87477203400006],[133.570068807000155,45.876425680000111],[133.564074341000037,45.880559794000035],[133.559113403000083,45.885210673000088],[133.552292115,45.888414612000062]],[[133.552292115,45.888414612000062],[133.531621541000106,45.88815623],[133.514361613,45.879267884000072],[133.502682739000136,45.862007955000095],[133.49834191900004,45.837203268000067],[133.494001099,45.833327535000095],[133.484906047000095,45.828418274000072],[133.477257935000011,45.820098369],[133.477257935000011,45.805835673000033],[133.483769166,45.796585592000028],[133.503406210000151,45.787645569000077],[133.511364381000021,45.778550517000028],[133.484906047000095,45.768473613000069],[133.470850057,45.728889466000041],[133.443048137000062,45.709665833000102],[133.451626424000153,45.699175517000057],[133.476637818000142,45.693594462000036],[133.487799927000083,45.686669820000063],[133.491520630000082,45.673388978000062],[133.482838990000062,45.662898662000103],[133.456690715000036,45.648790995000056],[133.462168417000044,45.644036764000063],[133.471780233000061,45.632461243000122],[133.477257935000011,45.627707011000027],[133.458447714000044,45.622642721000048],[133.442014608000079,45.620627340000013],[133.427648560000137,45.615252991000048],[133.415142863000028,45.600421855000022],[133.425168091000046,45.580423075000098],[133.413489218,45.573343405000074],[133.374835246000089,45.573085022],[133.362536255000066,45.567917379000093],[133.330290162000097,45.549262187000025],[133.29887089000016,45.542079163000082],[133.271689087000084,45.528436585000051],[133.240889933000119,45.523268942000058],[133.202132609000046,45.511280009000089],[133.189213502000086,45.504148662000077],[133.179808391000108,45.493813375000045],[133.14022424400008,45.435419007000078],[133.13319624900015,45.419606019000085],[133.128752075000136,45.402759502000023],[133.127201783000032,45.385086161000018],[133.101880331000132,45.287210999000123],[133.106737915000053,45.264628398000085],[133.097539510000047,45.243544413000066],[133.106531210000071,45.214708964000025],[133.120690552000042,45.183444723000022],[133.127201783000032,45.15538442000009],[133.125238078000052,45.141328431],[133.121517375000053,45.131251526000042],[133.115419556,45.123034973000117],[133.098779745,45.107790426000079],[133.073354940000058,45.090633850000117],[133.049687134000067,45.081745504000097],[133.023848918000056,45.058336080000046],[132.992636352000147,45.048465882000059],[132.966178020000086,45.028880514000022],[132.953362264000077,45.024384664000095]],[[132.953362264000077,45.024384664000095],[132.921219523000161,45.027898662000055],[132.839777466000101,45.059162903000058],[132.404713582500051,45.146496073500131],[131.969649699,45.233829244000034],[131.968822876000161,45.233984274000065],[131.949909302000037,45.239720357000024],[131.931512492000024,45.248712057000049],[131.914562622000119,45.260132549000062],[131.900403280000091,45.272896627000037],[131.88841434800014,45.291138407000076],[131.880456177000042,45.309896952000074],[131.870741008000095,45.326330058000039],[131.853067668000051,45.337595520000022]],[[131.853067668000051,45.337595520000022],[131.81803104700009,45.332789612000013],[131.785268189000021,45.304729309000081],[131.723153118000027,45.215329082],[131.711267538000016,45.208662822000079]],[[131.711267538000016,45.208662822000079],[131.666929159000063,45.209592998000048]],[[131.666929159000063,45.209592998000048],[131.644501587000036,45.206440736000062],[131.627758424000035,45.19848256500002],[131.615149374,45.184943340000032],[131.60522749900008,45.164634501000123],[131.60491744,45.147426250000038],[131.622384074000024,45.123655091000089],[131.619800253000051,45.103656311000051],[131.609051555000121,45.089703674000063],[131.471488892000025,44.996634420000063],[131.46570113100006,44.99322377600005],[131.452161906000015,44.983715312000058],[131.442963501,44.971312969000095],[131.433765097000105,44.96128774000006],[131.419502401000045,44.958962301000028]],[[131.419502401000045,44.958962301000028],[131.350359335000064,44.968005677000079]],[[131.350359335000064,44.968005677000079],[131.329482056000074,44.967643942000095],[131.313152304000027,44.963664856000022],[131.299923137000121,44.956481832000051],[131.258995403000085,44.928163147000063],[131.244629354000097,44.922168681000031],[131.176519816,44.903410136000034],[131.158019654000157,44.90170481400007]],[[131.158019654000157,44.90170481400007],[131.140449666,44.906820781000064],[131.123603149000019,44.915605774000042],[131.110063924000144,44.919533183000013]],[[131.110063924000144,44.919533183000013],[131.095801229000074,44.919119771000013],[131.051566203000164,44.909042867000082],[131.045365032000063,44.905425517000097],[131.041127564000021,44.897777405000014],[131.042057740000075,44.882481181000045],[131.038853801000073,44.874574687000106],[131.024797812000088,44.862430726000113],[131.00826135300008,44.85628123000005],[130.99027795500001,44.854162496000058],[130.97157108600004,44.854059144000033],[130.933433879000063,44.841708476000079],[130.930126587000075,44.824965312000032],[130.97157108600004,44.775614319000013],[131.007537883000111,44.757320862000043],[131.021387167000057,44.746882223000014],[131.065828899000053,44.682028301000074],[131.165151001500078,44.368119813000092],[131.264473104000103,44.054211325000026],[131.261475871000016,44.046098124000096],[131.251553997000087,44.041550599000075],[131.235327596000104,44.031111959000029],[131.217757610000035,44.016074117000059],[131.213106731000039,44.006875712000053],[131.212900025000067,43.99323313400005],[131.206698853000091,43.974784648000124],[131.207939087000057,43.959488424000071],[131.218377727000075,43.925872905000048],[131.217344198000092,43.908483786000019],[131.192849569000032,43.860243835000105],[131.172799113,43.799110616000078],[131.170318644000133,43.78110138000001],[131.17786340300006,43.725497538000084],[131.174969523000073,43.701467998000069],[131.175072876000115,43.693768209000083],[131.177449992000163,43.684466451000034],[131.185408163000034,43.666328024],[131.18799198500011,43.6566645300001],[131.187268514000039,43.647982890000023],[131.181480754000063,43.629844463],[131.180240519,43.62302317300005],[131.182410930000117,43.614031474000015],[131.190782512000055,43.595893046000086],[131.192022746000021,43.588632507000014],[131.185718221,43.574447327000044],[131.165667765000137,43.549022523000033],[131.160706828,43.532770284000023],[131.166908,43.521065573000058],[131.252848463000078,43.46916859100007],[131.261682577000158,43.463833923],[131.274291626000092,43.451199036000062],[131.27780562300012,43.438486633000096],[131.281836386,43.393140565000081],[131.280906210000069,43.380221456000086],[131.269640748000029,43.364744365000078],[131.257755168000074,43.355726828000016],[131.247936646000085,43.344202982000084],[131.242458944000134,43.321413676000091],[131.24204553300001,43.283767395000083],[131.237704712000095,43.265835674000087],[131.225509074,43.251934713000125],[131.193056275,43.230799053000069],[131.178586874000075,43.217389018000048],[131.16907841,43.201705221000068],[131.167218059000163,43.181551412000019],[131.174969523000073,43.168399761000032],[131.184891398000161,43.156333313000047],[131.189852336000115,43.139150899000086],[131.183961223000097,43.120805766],[131.169388468000079,43.107809144000058],[131.134351847000062,43.089334819000058],[131.126600383000152,43.082384339000058],[131.124016561000133,43.075356344000042],[131.122983033000139,43.067734070000071],[131.11988244600002,43.059000753000092],[131.112441040000022,43.051869406000051],[131.094044231,43.046830953],[131.085465943000088,43.04210256],[131.078334595,43.031818950000016],[131.075234009000098,43.019597473],[131.074303834000034,42.99339752200008],[131.082778769000015,42.965233867000038],[131.099315226000044,42.935442403000124],[131.103035929000043,42.910431010000039],[131.073993774000144,42.896581726000065]],[[131.073993774000144,42.896581726000065],[131.039473918,42.898002829000049]],[[131.039473918,42.898002829000049],[131.023867636000091,42.896271668000097],[131.00877811700002,42.886892395000032],[131.001956829000051,42.873301493000056],[130.999579713,42.858754578000102],[130.992448365000087,42.848729350000056]],[[130.992448365000087,42.848729350000056],[130.856229289,42.84976287800005],[130.816541789000098,42.864051412000023],[130.794320923000157,42.869064026]],[[130.794320923000157,42.869064026],[130.769516236000129,42.865808411],[130.756803833000049,42.85327687600001],[130.748018840000157,42.837489726000015],[130.734893026,42.82449310300008]],[[130.734893026,42.82449310300008],[130.730965617000038,42.825888367000076],[130.64911014900008,42.828937277000094]],[[130.64911014900008,42.828937277000094],[130.5864783130001,42.817258403000025],[130.490980266000122,42.780826518000126],[130.407161092000081,42.735377096000079],[130.379669231000094,42.69667144800006],[130.403750448000153,42.677551168000051],[130.438063599000145,42.675303244000062]],[[130.474340454000128,42.679049785000061],[130.503899374000071,42.677809551000038],[130.526740356000062,42.665768941000053],[130.551131633000068,42.645615133],[130.571905559000015,42.621818136000016],[130.584307902000091,42.598899639000095],[130.584514608000063,42.568901469000039],[130.567564738000158,42.552752584000061],[130.530771119000065,42.530480042000093]],[[130.438063599000145,42.675303244000062],[130.474340454000128,42.679049785000061]]]}}
]
}
